STARLINK-36265          
1 67208U 25304S   26016.59002144  .00014183  00000+0  32648-3 0  9999
2 67208  70.0005 310.5005 0003296 273.2417  86.8388 15.42727637  5962
STARLINK-36226          
1 67209U 25304T   26016.58191566  .00019894  00000+0  45617-3 0  9990
2 67209  70.0008 310.4711 0003373 268.9443  91.1352 15.42733229  5969
STARLINK-36173          
1 67210U 25304U   26016.57363239  .00024043  00000+0  55029-3 0  9999
2 67210  70.0008 310.4409 0002841 270.4935  89.5922 15.42735635  5965
STARLINK-36280          
1 67211U 25304V   26016.56966916  .00027121  00000+0  62004-3 0  9991
2 67211  70.0007 310.4262 0003006 265.7785  94.3054 15.42735915  5967
STARLINK-36213          
1 67212U 25304W   26016.56570655  .00023396  00000+0  53566-3 0  9996
2 67212  70.0005 310.4120 0003166 270.8554  89.2265 15.42732043  5963
STARLINK-36199          
1 67213U 25304X   26016.58336806  .00059811  00000+0  13606-2 0  9998
2 67213  70.0005 310.3128 0003392 273.2765 229.8794 15.42668435  6067
STARLINK-36203          
1 67214U 25304Y   26016.58336806  .00059107  00000+0  13454-2 0  9998
2 67214  70.0005 310.2857 0003367 273.1803 253.0283 15.42652487  6062
STARLINK-36221          
1 67215U 25304Z   26016.58336806  .00060759  00000+0  13820-2 0  9991
2 67215  70.0008 310.2617 0003134 281.3661 266.7843 15.42668145  6066
STARLINK-36212          
1 67216U 25304AA  26016.58336806  .00057839  00000+0  13157-2 0  9990
2 67216  70.0008 310.2350 0002935 269.5984 301.5474 15.42680014  6062
STARLINK-36216          
1 67217U 25304AB  26016.58336806  .00055270  00000+0  12579-2 0  9995
2 67217  70.0006 310.2110 0003186 266.0028 327.1408 15.42677123  6063
STARLINK-36211          
1 67218U 25304AC  26016.58336806  .00065634  00000+0  14924-2 0  9997
2 67218  70.0005 310.1827 0002935 262.3154 353.8542 15.42653723  6039
DISKSAT C               
1 67219U 25305A   26016.44248637  .00007284  00000+0  50186-3 0  9996
2 67219  45.0016 167.1376 0001690  39.5506 320.5492 15.06426691  4412
