CCSDS_OMM_VERS = 2.0
CREATION_DATE  = 
ORIGINATOR     = 

OBJECT_NAME    = STARLINK-36265
OBJECT_ID      = 2025-304S
CENTER_NAME    = EARTH
REF_FRAME      = TEME
TIME_SYSTEM    = UTC
MEAN_ELEMENT_THEORY = SGP/SGP4

EPOCH          = 2026-01-16T14:09:37.852416
MEAN_MOTION    = 15.42727637
ECCENTRICITY   = .00032969
INCLINATION    = 70.0005
RA_OF_ASC_NODE = 310.5005
ARG_OF_PERICENTER = 273.2417
MEAN_ANOMALY   = 86.8388

EPHEMERIS_TYPE = 0
CLASSIFICATION_TYPE = U
NORAD_CAT_ID   = 67208
ELEMENT_SET_NO = 999
REV_AT_EPOCH   = 596
BSTAR          = .32647548E-3
MEAN_MOTION_DOT = .14183E-3
MEAN_MOTION_DDOT = 0

CCSDS_OMM_VERS = 2.0
CREATION_DATE  = 
ORIGINATOR     = 

OBJECT_NAME    = STARLINK-36226
OBJECT_ID      = 2025-304T
CENTER_NAME    = EARTH
REF_FRAME      = TEME
TIME_SYSTEM    = UTC
MEAN_ELEMENT_THEORY = SGP/SGP4

EPOCH          = 2026-01-16T13:57:57.513024
MEAN_MOTION    = 15.42733229
ECCENTRICITY   = .00033738
INCLINATION    = 70.0008
RA_OF_ASC_NODE = 310.4711
ARG_OF_PERICENTER = 268.9443
MEAN_ANOMALY   = 91.1352

EPHEMERIS_TYPE = 0
CLASSIFICATION_TYPE = U
NORAD_CAT_ID   = 67209
ELEMENT_SET_NO = 999
REV_AT_EPOCH   = 596
BSTAR          = .45617301E-3
MEAN_MOTION_DOT = .19894E-3
MEAN_MOTION_DDOT = 0

CCSDS_OMM_VERS = 2.0
CREATION_DATE  = 
ORIGINATOR     = 

OBJECT_NAME    = STARLINK-36173
OBJECT_ID      = 2025-304U
CENTER_NAME    = EARTH
REF_FRAME      = TEME
TIME_SYSTEM    = UTC
MEAN_ELEMENT_THEORY = SGP/SGP4

EPOCH          = 2026-01-16T13:46:01.838496
MEAN_MOTION    = 15.42735635
ECCENTRICITY   = .00028413
INCLINATION    = 70.0008
RA_OF_ASC_NODE = 310.4409
ARG_OF_PERICENTER = 270.4935
MEAN_ANOMALY   = 89.5922

EPHEMERIS_TYPE = 0
CLASSIFICATION_TYPE = U
NORAD_CAT_ID   = 67210
ELEMENT_SET_NO = 999
REV_AT_EPOCH   = 596
BSTAR          = .55028677E-3
MEAN_MOTION_DOT = .24043E-3
MEAN_MOTION_DDOT = 0

CCSDS_OMM_VERS = 2.0
CREATION_DATE  = 
ORIGINATOR     = 

OBJECT_NAME    = STARLINK-36280
OBJECT_ID      = 2025-304V
CENTER_NAME    = EARTH
REF_FRAME      = TEME
TIME_SYSTEM    = UTC
MEAN_ELEMENT_THEORY = SGP/SGP4

EPOCH          = 2026-01-16T13:40:19.415424
MEAN_MOTION    = 15.42735915
ECCENTRICITY   = .00030063
INCLINATION    = 70.0007
RA_OF_ASC_NODE = 310.4262
ARG_OF_PERICENTER = 265.7785
MEAN_ANOMALY   = 94.3054

EPHEMERIS_TYPE = 0
CLASSIFICATION_TYPE = U
NORAD_CAT_ID   = 67211
ELEMENT_SET_NO = 999
REV_AT_EPOCH   = 596
BSTAR          = .62004372E-3
MEAN_MOTION_DOT = .27121E-3
MEAN_MOTION_DDOT = 0

CCSDS_OMM_VERS = 2.0
CREATION_DATE  = 
ORIGINATOR     = 

OBJECT_NAME    = STARLINK-36213
OBJECT_ID      = 2025-304W
CENTER_NAME    = EARTH
REF_FRAME      = TEME
TIME_SYSTEM    = UTC
MEAN_ELEMENT_THEORY = SGP/SGP4

EPOCH          = 2026-01-16T13:34:37.045920
MEAN_MOTION    = 15.42732043
ECCENTRICITY   = .00031668
INCLINATION    = 70.0005
RA_OF_ASC_NODE = 310.4120
ARG_OF_PERICENTER = 270.8554
MEAN_ANOMALY   = 89.2265

EPHEMERIS_TYPE = 0
CLASSIFICATION_TYPE = U
NORAD_CAT_ID   = 67212
ELEMENT_SET_NO = 999
REV_AT_EPOCH   = 596
BSTAR          = .53566018E-3
MEAN_MOTION_DOT = .23396E-3
MEAN_MOTION_DDOT = 0

CCSDS_OMM_VERS = 2.0
CREATION_DATE  = 
ORIGINATOR     = 

OBJECT_NAME    = STARLINK-36199
OBJECT_ID      = 2025-304X
CENTER_NAME    = EARTH
REF_FRAME      = TEME
TIME_SYSTEM    = UTC
MEAN_ELEMENT_THEORY = SGP/SGP4

EPOCH          = 2026-01-16T14:00:03.000384
MEAN_MOTION    = 15.42668435
ECCENTRICITY   = .00033925
INCLINATION    = 70.0005
RA_OF_ASC_NODE = 310.3128
ARG_OF_PERICENTER = 273.2765
MEAN_ANOMALY   = 229.8794

EPHEMERIS_TYPE = 0
CLASSIFICATION_TYPE = U
NORAD_CAT_ID   = 67213
ELEMENT_SET_NO = 999
REV_AT_EPOCH   = 606
BSTAR          = .13605815E-2
MEAN_MOTION_DOT = .59811E-3
MEAN_MOTION_DDOT = 0

CCSDS_OMM_VERS = 2.0
CREATION_DATE  = 
ORIGINATOR     = 

OBJECT_NAME    = STARLINK-36203
OBJECT_ID      = 2025-304Y
CENTER_NAME    = EARTH
REF_FRAME      = TEME
TIME_SYSTEM    = UTC
MEAN_ELEMENT_THEORY = SGP/SGP4

EPOCH          = 2026-01-16T14:00:03.000384
MEAN_MOTION    = 15.42652487
ECCENTRICITY   = .00033678
INCLINATION    = 70.0005
RA_OF_ASC_NODE = 310.2857
ARG_OF_PERICENTER = 273.1803
MEAN_ANOMALY   = 253.0283

EPHEMERIS_TYPE = 0
CLASSIFICATION_TYPE = U
NORAD_CAT_ID   = 67214
ELEMENT_SET_NO = 999
REV_AT_EPOCH   = 606
BSTAR          = .1345448E-2
MEAN_MOTION_DOT = .59107E-3
MEAN_MOTION_DDOT = 0

CCSDS_OMM_VERS = 2.0
CREATION_DATE  = 
ORIGINATOR     = 

OBJECT_NAME    = STARLINK-36221
OBJECT_ID      = 2025-304Z
CENTER_NAME    = EARTH
REF_FRAME      = TEME
TIME_SYSTEM    = UTC
MEAN_ELEMENT_THEORY = SGP/SGP4

EPOCH          = 2026-01-16T14:00:03.000384
MEAN_MOTION    = 15.42668145
ECCENTRICITY   = .00031345
INCLINATION    = 70.0008
RA_OF_ASC_NODE = 310.2617
ARG_OF_PERICENTER = 281.3661
MEAN_ANOMALY   = 266.7843

EPHEMERIS_TYPE = 0
CLASSIFICATION_TYPE = U
NORAD_CAT_ID   = 67215
ELEMENT_SET_NO = 999
REV_AT_EPOCH   = 606
BSTAR          = .13819733E-2
MEAN_MOTION_DOT = .60759E-3
MEAN_MOTION_DDOT = 0

CCSDS_OMM_VERS = 2.0
CREATION_DATE  = 
ORIGINATOR     = 

OBJECT_NAME    = STARLINK-36212
OBJECT_ID      = 2025-304AA
CENTER_NAME    = EARTH
REF_FRAME      = TEME
TIME_SYSTEM    = UTC
MEAN_ELEMENT_THEORY = SGP/SGP4

EPOCH          = 2026-01-16T14:00:03.000384
MEAN_MOTION    = 15.42680014
ECCENTRICITY   = .00029352
INCLINATION    = 70.0008
RA_OF_ASC_NODE = 310.2350
ARG_OF_PERICENTER = 269.5984
MEAN_ANOMALY   = 301.5474

EPHEMERIS_TYPE = 0
CLASSIFICATION_TYPE = U
NORAD_CAT_ID   = 67216
ELEMENT_SET_NO = 999
REV_AT_EPOCH   = 606
BSTAR          = .13157269E-2
MEAN_MOTION_DOT = .57839E-3
MEAN_MOTION_DDOT = 0

CCSDS_OMM_VERS = 2.0
CREATION_DATE  = 
ORIGINATOR     = 

OBJECT_NAME    = STARLINK-36216
OBJECT_ID      = 2025-304AB
CENTER_NAME    = EARTH
REF_FRAME      = TEME
TIME_SYSTEM    = UTC
MEAN_ELEMENT_THEORY = SGP/SGP4

EPOCH          = 2026-01-16T14:00:03.000384
MEAN_MOTION    = 15.42677123
ECCENTRICITY   = .00031862
INCLINATION    = 70.0006
RA_OF_ASC_NODE = 310.2110
ARG_OF_PERICENTER = 266.0028
MEAN_ANOMALY   = 327.1408

EPHEMERIS_TYPE = 0
CLASSIFICATION_TYPE = U
NORAD_CAT_ID   = 67217
ELEMENT_SET_NO = 999
REV_AT_EPOCH   = 606
BSTAR          = .12579333E-2
MEAN_MOTION_DOT = .5527E-3
MEAN_MOTION_DDOT = 0

CCSDS_OMM_VERS = 2.0
CREATION_DATE  = 
ORIGINATOR     = 

OBJECT_NAME    = STARLINK-36211
OBJECT_ID      = 2025-304AC
CENTER_NAME    = EARTH
REF_FRAME      = TEME
TIME_SYSTEM    = UTC
MEAN_ELEMENT_THEORY = SGP/SGP4

EPOCH          = 2026-01-16T14:00:03.000384
MEAN_MOTION    = 15.42653723
ECCENTRICITY   = .00029355
INCLINATION    = 70.0005
RA_OF_ASC_NODE = 310.1827
ARG_OF_PERICENTER = 262.3154
MEAN_ANOMALY   = 353.8542

EPHEMERIS_TYPE = 0
CLASSIFICATION_TYPE = U
NORAD_CAT_ID   = 67218
ELEMENT_SET_NO = 999
REV_AT_EPOCH   = 603
BSTAR          = .1492389E-2
MEAN_MOTION_DOT = .65634E-3
MEAN_MOTION_DDOT = 0

CCSDS_OMM_VERS = 2.0
CREATION_DATE  = 
ORIGINATOR     = 

OBJECT_NAME    = DISKSAT C
OBJECT_ID      = 2025-305A
CENTER_NAME    = EARTH
REF_FRAME      = TEME
TIME_SYSTEM    = UTC
MEAN_ELEMENT_THEORY = SGP/SGP4

EPOCH          = 2026-01-16T10:37:10.822368
MEAN_MOTION    = 15.06426691
ECCENTRICITY   = .000169
INCLINATION    = 45.0016
RA_OF_ASC_NODE = 167.1376
ARG_OF_PERICENTER = 39.5506
MEAN_ANOMALY   = 320.5492

EPHEMERIS_TYPE = 0
CLASSIFICATION_TYPE = U
NORAD_CAT_ID   = 67219
ELEMENT_SET_NO = 999
REV_AT_EPOCH   = 441
BSTAR          = .50186248E-3
MEAN_MOTION_DOT = .7284E-4
MEAN_MOTION_DDOT = 0

